NUSAT-50 (NANCY ROMAN)  
1 60493U 24149AB  26068.80227738  .00012094  00000+0  42252-3 0  9994
2 60493  97.3817 150.7693 0002523 238.0469 122.0527 15.29713355 86930
STARLINK-33714          
1 63581U 25076N   26068.10921183  .00036706  00000+0  13362-2 0  9998
2 63581  43.0030 324.8001 0001873 263.2654  96.7985 15.27592859 51744
